NOAA 15                 
1 25338U 98030A   20083.75932971  .00000016  00000-0  25496-4 0  9994
2 25338  98.7260 109.2093 0011097 147.4440 212.7426 14.25955719137026
NOAA 18                 
1 28654U 05018A   20083.73570853  .00000088  00000-0  72282-4 0  9991
2 28654  99.0551 139.3212 0015290 112.0814 248.1982 14.12497483764915
NOAA 19                 
1 33591U 09005A   20083.73359014  .00000020  00000-0  36217-4 0  9995
2 33591  99.1968  86.8469 0013295 319.4960  40.5220 14.12399732573298
METEOR-M 2              
1 40069U 14037A   20084.39451526 -.00000034  00000-0  35798-5 0  9998
2 40069  98.5142 125.1012 0005972 156.8684 203.2763 14.20670900296136
